line1,line2,classification,launch_year,launch_number,launch_piece,epoch_year,epoch_day,mean_motion_dot,mean_motion_ddot,bstar,ephemeris_type,element_number,satellite_number,inclination,ra_of_asc_node,eccentricity,arg_of_perigee,mean_anomaly,mean_motion,rev_at_epoch,datetime,x,y,z,cartesian_cords,NORAD_CAT_ID,OBJECT_TYPE,SATNAME,SITE,Operator/Owner,Users,Purpose,anom_inclination,anom_ra_of_asc_node,anom_eccentricity,anom_arg_of_perigee,anom_mean_anomaly,anom_mean_motion,anom_count
1 01570U 65070A   21350.90638017 -.00000084  00000-0  72455-4 0  9996,2 01570  56.0558 249.0957 0099697 253.8433 203.6253 12.52766551575422,U,65,070,A,21,350.90638017,-8.4e-07,0.0,0.0,0,999,1570,56.0558,249.0957,0.0099697,253.8433,203.6253,12.52766551,57542,2021-12-16 21:45:11.246688,4444.230751920138,-681.3116479453953,6490.547431854905,[4444.23075192 -681.31164795 6490.54743185],1570,PAYLOAD,COSMOS 80,TTMTR,0,0,0,0.0,0.0,0.0,0.0,0.0,0.0,0.0
1 01570U 65070A   21350.44445206 -.00000087  00000-0  53203-4 0  9994,2 01570  56.0559 250.3489 0099707 253.2069 280.3592 12.52766547575365,U,65,070,A,21,350.44445206,-8.7e-07,0.0,0.0,0,999,1570,56.0559,250.3489,0.0099707,253.2069,280.3592,12.52766547,57536,2021-12-16 10:40:00.657984,3178.214492711031,7093.711320382768,836.3855162273295,[3178.21449271 7093.71132038  836.38551623],1570,PAYLOAD,COSMOS 80,TTMTR,0,0,0,0.0,0.0,0.0,0.0,0.0,0.0,0.0
1  1570U 65070A   21350.20225206 -.00000087  00000-0  56488-4 0  9992,2  1570  56.0559 251.0060 0099711 252.8707 268.0553 12.52766551575777,U,65,070,A,21,350.20225206,-8.7e-07,0.0,0.0,0,999,1570,56.0559,251.006,0.0099711,252.8707,268.0553,12.52766551,57577,2021-12-16 04:51:14.577984,3854.113256210586,6445.189104903883,2228.0891761634693,[3854.11325621 6445.1891049  2228.08917616],1570,PAYLOAD,COSMOS 80,TTMTR,0,0,0,0.0,0.0,0.0,0.0,0.0,0.0,0.0
1 01570U 65070A   21349.86285984 -.00000094  00000-0  12473-4 0  9995,2 01570  56.0560 251.9267 0099724 252.4018 177.4195 12.52766528575298,U,65,070,A,21,349.86285984,-9.4e-07,0.0,0.0,0,999,1570,56.056,251.9267,0.0099724,252.4018,177.4195,12.52766528,57529,2021-12-15 20:42:31.090176,3088.561941341318,-3889.4603192120294,6146.904625768825,[ 3088.56194134 -3889.46031921  6146.90462577],1570,PAYLOAD,COSMOS 80,TTMTR,0,0,0,0.0,0.0,0.0,0.0,0.0,0.0,0.0
1 01570U 65070A   21349.48665979 -.00000097  00000-0 -76522-5 0  9999,2 01570  56.0560 252.9473 0099731 251.8828 280.7822 12.52766516575245,U,65,070,A,21,349.48665979,-9.7e-07,0.0,-7.652200000000001e-06,0,999,1570,56.056,252.9473,0.0099731,251.8828,280.7822,12.52766516,57524,2021-12-15 11:40:47.405856,2913.139470624689,7193.396302066848,937.77351244886,[2913.13947062 7193.39630207  937.77351245],1570,PAYLOAD,COSMOS 80,TTMTR,0,0,0,0.0,0.0,0.0,0.0,0.0,0.0,0.0
1 01570U 65070A   21348.90566126 -.00000102  00000-0 -41315-4 0  9997,2 01570  56.0560 254.5235 0099743 251.0762 180.5224 12.52766504575173,U,65,070,A,21,348.90566126,-1.02e-06,0.0,-4.131500000000001e-05,0,999,1570,56.056,254.5235,0.0099743,251.0762,180.5224,12.52766504,57517,2021-12-14 21:44:09.132864,3364.625628884062,-3542.6890239519644,6211.2858803441995,[ 3364.62562888 -3542.68902395  6211.28588034],1570,PAYLOAD,COSMOS 80,TTMTR,0,0,0,0.0,0.0,0.0,0.0,0.0,0.0,0.0
1  1570U 65070A   21348.12351972 -.00000104  00000-0 -52358-4 0  9993,2  1570  56.0561 256.6454 0099764 249.9956 253.1173 12.52766500575518,U,65,070,A,21,348.12351972,-1.04e-06,0.0,-5.235800000000001e-05,0,999,1570,56.0561,256.6454,0.0099764,249.9956,253.1173,12.527665,57551,2021-12-14 02:57:52.103808,4087.251055730439,5384.578506138826,3992.348356568257,[4087.25105573 5384.57850614 3992.34835657],1570,PAYLOAD,COSMOS 80,TTMTR,0,0,0,0.0,0.0,0.0,0.0,0.0,0.0,0.0
1 01570U 65070A   21347.95281472 -.00000107  00000-0 -67835-4 0  9999,2 01570  56.0561 257.1085 0099773 249.7598 203.2494 12.52766496575059,U,65,070,A,21,347.95281472,-1.07e-06,0.0,-6.7835e-05,0,999,1570,56.0561,257.1085,0.0099773,249.7598,203.2494,12.52766496,57505,2021-12-13 22:52:03.191808,4384.536211454096,-659.7167551212618,6533.46700934445,[4384.53621145 -659.71675512 6533.46700934],1570,PAYLOAD,COSMOS 80,TTMTR,0,0,0,0.0,0.0,0.0,0.0,0.0,0.0,0.0
1 01570U 65070A   21347.49176369 -.00000107  00000-0 -70915-4 0  9999,2 01570  56.0562 258.3593 0099786 249.1240 283.9395 12.52766500574992,U,65,070,A,21,347.49176369,-1.07e-06,0.0,-7.0915e-05,0,999,1570,56.0562,258.3593,0.0099786,249.124,283.9395,12.527665,57499,2021-12-13 11:48:08.382816,2191.746223052436,7446.10998072323,892.7893044171865,[2191.74622305 7446.10998072  892.78930442],1570,PAYLOAD,COSMOS 80,TTMTR,0,0,0,0.0,0.0,0.0,0.0,0.0,0.0,0.0
1 01570U 65070A   21346.91046216 -.00000106  00000-0 -65098-4 0  9997,2 01570  56.0562 259.9363 0099806 248.3193 182.3110 12.52766511574927,U,65,070,A,21,346.91046216,-1.06e-06,0.0,-6.5098e-05,0,999,1570,56.0562,259.9363,0.0099806,248.3193,182.311,12.52766511,57492,2021-12-12 21:51:03.930624,3635.5302491428884,-3335.207590663246,6173.448421409238,[ 3635.53024914 -3335.20759066  6173.44842141],1570,PAYLOAD,COSMOS 80,TTMTR,0,0,0,0.0,0.0,0.0,0.0,0.0,0.0,0.0
1 01570U 65070A   21346.53405970 -.00000102  00000-0 -41464-4 0  9998,2 01570  56.0563 260.9574 0099813 247.8012 284.7595 12.52766526574870,U,65,070,A,21,346.5340597,-1.02e-06,0.0,-4.1464e-05,0,999,1570,56.0563,260.9574,0.0099813,247.8012,284.7595,12.52766526,57487,2021-12-12 12:49:02.758080,1887.375223668425,7520.918849872794,949.1951856690118,[1887.37522367 7520.91884987  949.19518567],1570,PAYLOAD,COSMOS 80,TTMTR,0,0,0,0.0,0.0,0.0,0.0,0.0,0.0,0.0
1  1570U 65070A   21346.12234222 -.00000100  00000-0 -25958-4 0  9991,2  1570  56.0563 262.0744 0099825 247.2310 227.9430 12.52766524575269,U,65,070,A,21,346.12234222,-1e-06,0.0,-2.5957999999999998e-05,0,999,1570,56.0563,262.0744,0.0099825,247.231,227.943,12.52766524,57526,2021-12-12 02:56:10.367808,4443.792408057332,2644.7100221586275,5942.7272352094815,[4443.79240806 2644.71002216 5942.72723521],1570,PAYLOAD,COSMOS 80,TTMTR,0,0,0,0.0,0.0,0.0,0.0,0.0,0.0,0.0
1 01570U 65070A   21345.78423206 -.00000099  00000-0 -21171-4 0  9994,2 01570  56.0563 262.9916 0099835 246.7648 143.0883 12.52766528574788,U,65,070,A,21,345.78423206,-9.9e-07,0.0,-2.1171e-05,0,999,1570,56.0563,262.9916,0.0099835,246.7648,143.0883,12.52766528,57478,2021-12-11 18:49:17.649984,1360.2675629382504,-7030.751697131879,3315.207839711334,[ 1360.26756294 -7030.75169713  3315.20783971],1570,PAYLOAD,COSMOS 80,TTMTR,0,0,0,0.0,0.0,0.0,0.0,0.0,0.0,0.0
1 01570U 65070A   21345.49686882 -.00000093  00000-0  20263-4 0  9997,2 01570  56.0562 263.7714 0099860 246.3733 287.0937 12.52766495574749,U,65,070,A,21,345.49686882,-9.3e-07,0.0,0.0,0,999,1570,56.0562,263.7714,0.009986,246.3733,287.0937,12.52766495,57474,2021-12-11 11:55:29.466048,1448.259000644098,7626.666407600071,846.941745567576,[1448.25900064 7626.6664076   846.94174557],1570,PAYLOAD,COSMOS 80,TTMTR,0,0,0,0.0,0.0,0.0,0.0,0.0,0.0,0.0
1 01570U 65070A   21344.82813685 -.00000093  00000-0  16055-4 0  9990,2 01570  56.0564 265.5854 0099865 245.4442 151.1633 12.52766511574662,U,65,070,A,21,344.82813685,-9.3e-07,0.0,0.0,0,999,1570,56.0564,265.5854,0.0099865,245.4442,151.1633,12.52766511,57466,2021-12-10 19:52:31.023840,2143.3684105759676,-6495.829608419696,3944.999308121523,[ 2143.36841058 -6495.82960842  3944.99930812],1570,PAYLOAD,COSMOS 80,TTMTR,0,0,0,0.0,0.0,0.0,0.0,0.0,0.0,0.0
1 01570U 65070A   21344.53914031 -.00000092  00000-0  26396-4 0  9993,2 01570  56.0564 266.3695 0099871 245.0463 287.8071 12.52766502574629,U,65,070,A,21,344.53914031,-9.2e-07,0.0,0.0,0,999,1570,56.0564,266.3695,0.0099871,245.0463,287.8071,12.52766502,57462,2021-12-10 12:56:21.722784,1146.1541983523232,7668.950078944097,915.7518197748539,[1146.15419835 7668.95007894  915.75181977],1570,PAYLOAD,COSMOS 80,TTMTR,0,0,0,0.0,0.0,0.0,0.0,0.0,0.0,0.0
1 01570U 65070A   21343.87134677 -.00000086  00000-0  58674-4 0  9996,2 01570  56.0564 268.1811 0099889 244.1220 156.1055 12.52766516574545,U,65,070,A,21,343.87134677,-8.6e-07,0.0,0.0,0,999,1570,56.0564,268.1811,0.0099889,244.122,156.1055,12.52766516,57454,2021-12-09 20:54:44.360928,2659.898425439217,-6096.739444627202,4260.017939174456,[ 2659.89842544 -6096.73944463  4260.01793917],1570,PAYLOAD,COSMOS 80,TTMTR,0,0,0,0.0,0.0,0.0,0.0,0.0,0.0,0.0
1 01570U 65070A   21342.92030639 -.00000083  00000-0  80233-4 0  9997,2 01570  56.0564 270.7612 0099913 242.8097 186.9764 12.52766493574427,U,65,070,A,21,342.92030639,-8.3e-07,0.0,0.0,0,999,1570,56.0564,270.7612,0.0099913,242.8097,186.9764,12.52766493,57442,2021-12-08 22:05:14.472096,4173.599346869859,-2717.1377475026293,6135.518503034497,[ 4173.59934687 -2717.1377475   6135.51850303],1570,PAYLOAD,COSMOS 80,TTMTR,0,0,0,0.0,0.0,0.0,0.0,0.0,0.0,0.0
1 01570U 65070A   21342.54422833 -.00000079  00000-0  10559-3 0  9994,2 01570  56.0564 271.7815 0099926 242.2926 290.8876 12.52766507574371,U,65,070,A,21,342.54422833,-7.9e-07,0.0,0.0,0,999,1570,56.0564,271.7815,0.0099926,242.2926,290.8876,12.52766507,57437,2021-12-08 13:03:41.327712,391.2012637083265,7744.607292848747,878.151579594627,[ 391.20126371 7744.60729285  878.15157959],1570,PAYLOAD,COSMOS 80,TTMTR,0,0,0,0.0,0.0,0.0,0.0,0.0,0.0,0.0
1  1570U 65070A   21341.79497140 -.00000077  00000-0  11893-3 0  9993,2  1570  56.0564 273.8142 0099951 241.2572 151.7902 12.52766506574724,U,65,070,A,21,341.7949714,-7.7e-07,0.0,0.0,0,999,1570,56.0564,273.8142,0.0099951,241.2572,151.7902,12.52766506,57472,2021-12-07 19:04:45.528960,2844.191625723239,-6421.953280356362,3610.540721096451,[ 2844.19162572 -6421.95328036  3610.5407211 ],1570,PAYLOAD,COSMOS 80,TTMTR,0,0,0,0.0,0.0,0.0,0.0,0.0,0.0,0.0
